[
  {
    "COMMENT": "GENERATED VIA SPACETRACK.ORG API",
    "ORIGINATOR": "18 SPCS",
    "NORAD_CAT_ID": "55970",
    "OBJECT_NAME": "SES 18",
    "OBJECT_TYPE": "PAYLOAD",
    "CLASSIFICATION_TYPE": "U",
    "INTLDES": "23039A",
    "EPOCH": "2023-06-19 13:23:11",
    "EPOCH_MICROSECONDS": "666688",
    "MEAN_MOTION": "1.00272297",
    "ECCENTRICITY": "0.0000307",
    "INCLINATION": "0.0399",
    "RA_OF_ASC_NODE": "267.0876",
    "ARG_OF_PERICENTER": "343.3416",
    "MEAN_ANOMALY": "114.7954",
    "EPHEMERIS_TYPE": "0",
    "ELEMENT_SET_NO": "999",
    "REV_AT_EPOCH": "113",
    "BSTAR": "0",
    "MEAN_MOTION_DOT": "-0.00000097",
    "MEAN_MOTION_DDOT": "0",
    "FILE": "3937338",
    "TLE_LINE0": "0 SES 18",
    "TLE_LINE1": "1 55970U 23039A   23170.55777392 -.00000097  00000-0  00000-0 0  9998",
    "TLE_LINE2": "2 55970   0.0399 267.0876 0000307 343.3416 114.7954  1.00272297  1135",
    "OBJECT_ID": "2023-039A",
    "OBJECT_NUMBER": "55970",
    "SEMIMAJOR_AXIS": "42164.588",
    "PERIOD": "1436.090",
    "APOGEE": "35787.748",
    "PERIGEE": "35785.159",
    "DECAYED": "0"
  },
  {
    "COMMENT": "GENERATED VIA SPACETRACK.ORG API",
    "ORIGINATOR": "18 SPCS",
    "NORAD_CAT_ID": "25544",
    "OBJECT_NAME": "ISS (ZARYA)",
    "OBJECT_TYPE": "PAYLOAD",
    "CLASSIFICATION_TYPE": "U",
    "INTLDES": "98067A",
    "EPOCH": "2023-06-19 16:47:21",
    "EPOCH_MICROSECONDS": "761952",
    "MEAN_MOTION": "15.50182422",
    "ECCENTRICITY": "0.0004508",
    "INCLINATION": "51.6424",
    "RA_OF_ASC_NODE": "316.0723",
    "ARG_OF_PERICENTER": "61.0941",
    "MEAN_ANOMALY": "314.8672",
    "EPHEMERIS_TYPE": "0",
    "ELEMENT_SET_NO": "999",
    "REV_AT_EPOCH": "40218",
    "BSTAR": "0.0002245",
    "MEAN_MOTION_DOT": "0.00012461",
    "MEAN_MOTION_DDOT": "0",
    "FILE": "3937331",
    "TLE_LINE0": "0 ISS (ZARYA)",
    "TLE_LINE1": "1 25544U 98067A   23170.69955743  .00012461  00000-0  22450-3 0  9991",
    "TLE_LINE2": "2 25544  51.6424 316.0723 0004508  61.0941 314.8672 15.50182422402180",
    "OBJECT_ID": "1998-067A",
    "OBJECT_NUMBER": "25544",
    "SEMIMAJOR_AXIS": "6794.330",
    "PERIOD": "92.892",
    "APOGEE": "419.258",
    "PERIGEE": "413.132",
    "DECAYED": "0"
  },
  {
    "COMMENT": "GENERATED VIA SPACETRACK.ORG API",
    "ORIGINATOR": "18 SPCS",
    "NORAD_CAT_ID": "41335",
    "OBJECT_NAME": "SENTINEL 3A",
    "OBJECT_TYPE": "PAYLOAD",
    "CLASSIFICATION_TYPE": "U",
    "INTLDES": "16011A",
    "EPOCH": "2023-06-19 18:02:05",
    "EPOCH_MICROSECONDS": "385408",
    "MEAN_MOTION": "14.26735699",
    "ECCENTRICITY": "0.0001293",
    "INCLINATION": "98.6213",
    "RA_OF_ASC_NODE": "237.7644",
    "ARG_OF_PERICENTER": "91.0797",
    "MEAN_ANOMALY": "269.0531",
    "EPHEMERIS_TYPE": "0",
    "ELEMENT_SET_NO": "999",
    "REV_AT_EPOCH": "38214",
    "BSTAR": "0.00008632",
    "MEAN_MOTION_DOT": "0.00000165",
    "MEAN_MOTION_DDOT": "0",
    "FILE": "3937380",
    "TLE_LINE0": "0 SENTINEL 3A",
    "TLE_LINE1": "1 41335U 16011A   23170.75145122  .00000165  00000-0  86320-4 0  9990",
    "TLE_LINE2": "2 41335  98.6213 237.7644 0001293  91.0797 269.0531 14.26735699382144",
    "OBJECT_ID": "2016-011A",
    "OBJECT_NUMBER": "41335",
    "SEMIMAJOR_AXIS": "7180.800",
    "PERIOD": "100.930",
    "APOGEE": "803.593",
    "PERIGEE": "801.736",
    "DECAYED": "0"
  },
  {
    "COMMENT": "GENERATED VIA SPACETRACK.ORG API",
    "ORIGINATOR": "18 SPCS",
    "NORAD_CAT_ID": "25544",
    "OBJECT_NAME": "ISS (ZARYA)",
    "OBJECT_TYPE": "PAYLOAD",
    "CLASSIFICATION_TYPE": "U",
    "INTLDES": "98067A",
    "EPOCH": "2023-06-19 19:48:56",
    "EPOCH_MICROSECONDS": "691360",
    "MEAN_MOTION": "15.50189232",
    "ECCENTRICITY": "0.0004529",
    "INCLINATION": "51.6411",
    "RA_OF_ASC_NODE": "315.4492",
    "ARG_OF_PERICENTER": "59.973",
    "MEAN_ANOMALY": "300.1708",
    "EPHEMERIS_TYPE": "0",
    "ELEMENT_SET_NO": "999",
    "REV_AT_EPOCH": "40220",
    "BSTAR": "0.00026631",
    "MEAN_MOTION_DOT": "0.00014875",
    "MEAN_MOTION_DDOT": "0",
    "FILE": "3937509",
    "TLE_LINE0": "0 ISS (ZARYA)",
    "TLE_LINE1": "1 25544U 98067A   23170.82565615  .00014875  00000-0  26631-3 0  9997",
    "TLE_LINE2": "2 25544  51.6411 315.4492 0004529  59.9730 300.1708 15.50189232402204",
    "OBJECT_ID": "1998-067A",
    "OBJECT_NUMBER": "25544",
    "SEMIMAJOR_AXIS": "6794.310",
    "PERIOD": "92.892",
    "APOGEE": "419.252",
    "PERIGEE": "413.098",
    "DECAYED": "0"
  },
  {
    "COMMENT": "GENERATED VIA SPACETRACK.ORG API",
    "ORIGINATOR": "18 SPCS",
    "NORAD_CAT_ID": "25544",
    "OBJECT_NAME": "ISS (ZARYA)",
    "OBJECT_TYPE": "PAYLOAD",
    "CLASSIFICATION_TYPE": "U",
    "INTLDES": "98067A",
    "EPOCH": "2023-06-19 20:20:19",
    "EPOCH_MICROSECONDS": "178880",
    "MEAN_MOTION": "15.50187622",
    "ECCENTRICITY": "0.0004512",
    "INCLINATION": "51.6426",
    "RA_OF_ASC_NODE": "315.3397",
    "ARG_OF_PERICENTER": "61.3046",
    "MEAN_ANOMALY": "60.51",
    "EPHEMERIS_TYPE": "0",
    "ELEMENT_SET_NO": "999",
    "REV_AT_EPOCH": "40220",
    "BSTAR": "0.00023656",
    "MEAN_MOTION_DOT": "0.00013159",
    "MEAN_MOTION_DDOT": "0",
    "FILE": "3937342",
    "TLE_LINE0": "0 ISS (ZARYA)",
    "TLE_LINE1": "1 25544U 98067A   23170.84744420  .00013159  00000-0  23656-3 0  9990",
    "TLE_LINE2": "2 25544  51.6426 315.3397 0004512  61.3046  60.5100 15.50187622402206",
    "OBJECT_ID": "1998-067A",
    "OBJECT_NUMBER": "25544",
    "SEMIMAJOR_AXIS": "6794.315",
    "PERIOD": "92.892",
    "APOGEE": "419.245",
    "PERIGEE": "413.114",
    "DECAYED": "0"
  },
  {
    "COMMENT": "GENERATED VIA SPACETRACK.ORG API",
    "ORIGINATOR": "18 SPCS",
    "NORAD_CAT_ID": "41335",
    "OBJECT_NAME": "SENTINEL 3A",
    "OBJECT_TYPE": "PAYLOAD",
    "CLASSIFICATION_TYPE": "U",
    "INTLDES": "16011A",
    "EPOCH": "2023-06-19 21:24:03",
    "EPOCH_MICROSECONDS": "835584",
    "MEAN_MOTION": "14.26735759",
    "ECCENTRICITY": "0.0001291",
    "INCLINATION": "98.6212",
    "RA_OF_ASC_NODE": "237.9026",
    "ARG_OF_PERICENTER": "91.127",
    "MEAN_ANOMALY": "269.0058",
    "EPHEMERIS_TYPE": "0",
    "ELEMENT_SET_NO": "999",
    "REV_AT_EPOCH": "38216",
    "BSTAR": "0.00008751",
    "MEAN_MOTION_DOT": "0.00000168",
    "MEAN_MOTION_DDOT": "0",
    "FILE": "3937509",
    "TLE_LINE0": "0 SENTINEL 3A",
    "TLE_LINE1": "1 41335U 16011A   23170.89171106  .00000168  00000-0  87510-4 0  9991",
    "TLE_LINE2": "2 41335  98.6212 237.9026 0001291  91.1270 269.0058 14.26735759382167",
    "OBJECT_ID": "2016-011A",
    "OBJECT_NUMBER": "41335",
    "SEMIMAJOR_AXIS": "7180.800",
    "PERIOD": "100.930",
    "APOGEE": "803.592",
    "PERIGEE": "801.738",
    "DECAYED": "0"
  },
  {
    "COMMENT": "GENERATED VIA SPACETRACK.ORG API",
    "ORIGINATOR": "18 SPCS",
    "NORAD_CAT_ID": "25544",
    "OBJECT_NAME": "ISS (ZARYA)",
    "OBJECT_TYPE": "PAYLOAD",
    "CLASSIFICATION_TYPE": "U",
    "INTLDES": "98067A",
    "EPOCH": "2023-06-20 02:42:56",
    "EPOCH_MICROSECONDS": "433888",
    "MEAN_MOTION": "15.50195842",
    "ECCENTRICITY": "0.000458",
    "INCLINATION": "51.6423",
    "RA_OF_ASC_NODE": "314.022",
    "ARG_OF_PERICENTER": "61.4775",
    "MEAN_ANOMALY": "104.1574",
    "EPHEMERIS_TYPE": "0",
    "ELEMENT_SET_NO": "999",
    "REV_AT_EPOCH": "40224",
    "BSTAR": "0.00024389",
    "MEAN_MOTION_DOT": "0.00013586",
    "MEAN_MOTION_DDOT": "0",
    "FILE": "3937513",
    "TLE_LINE0": "0 ISS (ZARYA)",
    "TLE_LINE1": "1 25544U 98067A   23171.11315317  .00013586  00000-0  24389-3 0  9998",
    "TLE_LINE2": "2 25544  51.6423 314.0220 0004580  61.4775 104.1574 15.50195842402246",
    "OBJECT_ID": "1998-067A",
    "OBJECT_NUMBER": "25544",
    "SEMIMAJOR_AXIS": "6794.291",
    "PERIOD": "92.891",
    "APOGEE": "419.268",
    "PERIGEE": "413.044",
    "DECAYED": "0"
  },
  {
    "COMMENT": "GENERATED VIA SPACETRACK.ORG API",
    "ORIGINATOR": "18 SPCS",
    "NORAD_CAT_ID": "41335",
    "OBJECT_NAME": "SENTINEL 3A",
    "OBJECT_TYPE": "PAYLOAD",
    "CLASSIFICATION_TYPE": "U",
    "INTLDES": "16011A",
    "EPOCH": "2023-06-20 04:08:00",
    "EPOCH_MICROSECONDS": "735936",
    "MEAN_MOTION": "14.26735927",
    "ECCENTRICITY": "0.000129",
    "INCLINATION": "98.6212",
    "RA_OF_ASC_NODE": "238.179",
    "ARG_OF_PERICENTER": "91.0637",
    "MEAN_ANOMALY": "269.0691",
    "EPHEMERIS_TYPE": "0",
    "ELEMENT_SET_NO": "999",
    "REV_AT_EPOCH": "38220",
    "BSTAR": "0.00008994",
    "MEAN_MOTION_DOT": "0.00000174",
    "MEAN_MOTION_DDOT": "0",
    "FILE": "3937572",
    "TLE_LINE0": "0 SENTINEL 3A",
    "TLE_LINE1": "1 41335U 16011A   23171.17223074  .00000174  00000-0  89940-4 0  9991",
    "TLE_LINE2": "2 41335  98.6212 238.1790 0001290  91.0637 269.0691 14.26735927382208",
    "OBJECT_ID": "2016-011A",
    "OBJECT_NUMBER": "41335",
    "SEMIMAJOR_AXIS": "7180.799",
    "PERIOD": "100.930",
    "APOGEE": "803.590",
    "PERIGEE": "801.738",
    "DECAYED": "0"
  },
  {
    "COMMENT": "GENERATED VIA SPACETRACK.ORG API",
    "ORIGINATOR": "18 SPCS",
    "NORAD_CAT_ID": "41335",
    "OBJECT_NAME": "SENTINEL 3A",
    "OBJECT_TYPE": "PAYLOAD",
    "CLASSIFICATION_TYPE": "U",
    "INTLDES": "16011A",
    "EPOCH": "2023-06-20 09:10:58",
    "EPOCH_MICROSECONDS": "409472",
    "MEAN_MOTION": "14.2673601",
    "ECCENTRICITY": "0.000129",
    "INCLINATION": "98.6212",
    "RA_OF_ASC_NODE": "238.3863",
    "ARG_OF_PERICENTER": "91.0739",
    "MEAN_ANOMALY": "269.0589",
    "EPHEMERIS_TYPE": "0",
    "ELEMENT_SET_NO": "999",
    "REV_AT_EPOCH": "38223",
    "BSTAR": "0.000088508",
    "MEAN_MOTION_DOT": "0.00000171",
    "MEAN_MOTION_DDOT": "0",
    "FILE": "3937902",
    "TLE_LINE0": "0 SENTINEL 3A",
    "TLE_LINE1": "1 41335U 16011A   23171.38262048  .00000171  00000-0  88508-4 0  9994",
    "TLE_LINE2": "2 41335  98.6212 238.3863 0001290  91.0739 269.0589 14.26736010382237",
    "OBJECT_ID": "2016-011A",
    "OBJECT_NUMBER": "41335",
    "SEMIMAJOR_AXIS": "7180.799",
    "PERIOD": "100.930",
    "APOGEE": "803.590",
    "PERIGEE": "801.737",
    "DECAYED": "0"
  }
]